[{"OBJECT_NAME":"STARLINK-6237","OBJECT_ID":"2023-088H","EPOCH":"2026-03-09T19:03:49.589280","MEAN_MOTION":15.02545987,"ECCENTRICITY":9.433e-5,"INCLINATION":43.0032,"RA_OF_ASC_NODE":107.0624,"ARG_OF_PERICENTER":278.2921,"MEAN_ANOMALY":81.7814,"EPHEMERIS_TYPE":0,"CLASSIFICATION_TYPE":"U","NORAD_CAT_ID":57055,"ELEMENT_SET_NO":999,"REV_AT_EPOCH":15038,"BSTAR":1.7184855e-5,"MEAN_MOTION_DOT":2.9e-7,"MEAN_MOTION_DDOT":0},{"OBJECT_NAME":"UNKNOWN","OBJECT_ID":"","EPOCH":"2026-03-08T21:02:08.847456","MEAN_MOTION":13.4538816,"ECCENTRICITY":0.071264,"INCLINATION":65.8806,"RA_OF_ASC_NODE":228.1422,"ARG_OF_PERICENTER":39.6357,"MEAN_ANOMALY":325.4608,"EPHEMERIS_TYPE":0,"CLASSIFICATION_TYPE":"U","NORAD_CAT_ID":81366,"ELEMENT_SET_NO":999,"REV_AT_EPOCH":7754,"BSTAR":0.00029991,"MEAN_MOTION_DOT":7.73e-6,"MEAN_MOTION_DDOT":0}]
